METEOSAT-7              
1 24932U 97049B   16217.08160675  .00000027  00000-0  00000+0 0  9997
2 24932  10.2616  40.1844 0000603 162.9675 197.1245  1.00268562 69288
NOAA 15                 
1 25338U 98030A   16218.48817608  .00000026  00000-0  29621-4 0  9993
2 25338  98.7837 222.7384 0011486  47.6356 312.5794 14.25745248948019
METEOSAT-8 (MSG-1)      
1 27509U 02040B   16218.10714064  .00000098  00000-0  00000+0 0  9996
2 27509   4.2864  59.5591 0000854 146.0092 164.8565  1.00401102 51125
KALPANA-1 (METSAT 1)    
1 27525U 02043A   16217.08449615  .00000000  00000-0  10000-3 0  9998
2 27525   5.8131  57.3769 0012358 216.9962 143.0519  1.00269421 50904
INSAT-3A                
1 27714U 03013A   16217.99077223 -.00000282  00000-0  00000+0 0  9996
2 27714   0.1020 269.5509 0006193 190.1317 304.4675  1.00271773 48822
NOAA 18                 
1 28654U 05018A   16218.51300021  .00000033  00000-0  43582-4 0  9991
2 28654  99.1974 226.7272 0013412 234.4731 125.5189 14.12297487577699
METEOSAT-9 (MSG-2)      
1 28912U 05049B   16218.30855956  .00000039  00000-0  00000+0 0  9990
2 28912   1.5898  68.8208 0000246 299.5512  66.2369  1.00274828 38951
MTSAT-2                 
1 28937U 06004A   16217.72607463 -.00000267  00000-0  00000+0 0  9996
2 28937   0.0070 334.3862 0003855 149.1929 236.5143  1.00273188 38222
FORMOSAT-3 FM6          
1 29047U 06011A   16217.18707950  .00000092  00000-0  52408-4 0  9998
2 29047  71.9799 113.9744 0051157 337.4393  22.4493 14.28522834539499
FORMOSAT-3 FM1          
1 29048U 06011B   16217.87359918 -.00000053  00000-0 -42265-5 0  9992
2 29048  71.9679  25.0634 0045500 292.2931 175.8052 14.28460761542082
FORMOSAT-3 FM5          
1 29049U 06011C   16218.19776400  .00000021  00000-0  24869-4 0  9990
2 29049  72.0191 188.0717 0036157 329.1291  30.7719 14.28490544537909
FORMOSAT-3 FM3          
1 29050U 06011D   16217.81462995  .00000099  00000-0  31578-4 0  9991
2 29050  72.0166 118.6540 0049994   9.4596 350.7485 14.58337444550446
FORMOSAT-3 FM4          
1 29051U 06011E   16218.15409866  .00000099  00000-0  54658-4 0  9992
2 29051  72.0059  92.7921 0069121 207.8993 151.8432 14.28511401540481
FORMOSAT-3 FM2          
1 29052U 06011F   16218.17758809  .00000033  00000-0  29280-4 0  9990
2 29052  72.0346 162.7677 0042037 294.0216  65.6523 14.28600633538802
GOES 13                 
1 29155U 06018A   16217.33786473 -.00000276  00000-0  00000+0 0  9990
2 29155   0.0840 261.8346 0003515 196.9672 261.2178  1.00280203 37384
METOP-A                 
1 29499U 06044A   16217.90701256  .00000012  00000-0  25376-4 0  9994
2 29499  98.6919 276.1437 0001663  49.1776  58.3425 14.21499613508209
FENGYUN 2D              
1 29640U 06053A   16218.55235028 -.00000383  00000-0  10000-3 0  9992
2 29640   3.8684  66.0203 0002001 242.1561 328.7607  1.00276029 35438
FENGYUN 3A              
1 32958U 08026A   16218.46337141 -.00000010  00000-0  14889-4 0  9996
2 32958  98.4484 256.2777 0010589 113.2474 246.9820 14.19625966424546
FENGYUN 2E              
1 33463U 08066A   16217.80380231 -.00000223  00000-0  00000+0 0  9998
2 33463   1.5916  63.3808 0003891 197.1525  69.0041  1.00273767 27958
NOAA 19                 
1 33591U 09005A   16218.54537501  .00000076  00000-0  66353-4 0  9993
2 33591  99.0440 175.7337 0015121  80.5382 279.7497 14.12094372386104
GOES 14                 
1 35491U 09033A   16217.42020386 -.00000116  00000-0  00000+0 0  9997
2 35491   0.3341  96.6357 0005194 105.5481 157.7742  1.00272306 26028
METEOR-M 1              
1 35865U 09049A   16218.54788858  .00000002  00000-0  19543-4 0  9998
2 35865  98.4530 247.8368 0002440  18.6683 341.4584 14.22074910357237
GOES 15                 
1 36411U 10008A   16217.50353395  .00000060  00000-0  00000+0 0  9999
2 36411   0.2692  97.5894 0000562 121.3037 141.0831  1.00284772 23552
COMS 1                  
1 36744U 10032A   16217.90003053 -.00000369  00000-0  00000+0 0  9995
2 36744   0.0224  86.5278 0000457  65.1606 254.3553  1.00273709 22527
FENGYUN 3B              
1 37214U 10059A   16218.50274891 -.00000009  00000-0  17856-4 0  9997
2 37214  98.8469 172.7257 0016684 321.7760  38.2226 14.15820387297870
ELEKTRO-L 1 (GOMS 2)    
1 37344U 11001A   16218.17490933  .00000069  00000-0  00000+0 0  9992
2 37344   1.7982  79.1878 0034166  81.2123 246.5078  0.99713622 20336
SUOMI NPP               
1 37849U 11061A   16217.81989411  .00000002  00000-0  21874-4 0  9996
2 37849  98.7226 155.2555 0001213  50.2188   2.6089 14.19557500247203
FENGYUN 2F              
1 38049U 12002A   16217.03291872  .00000000  00000-0  10000-3 0  9992
2 38049   1.0756  76.5742 0003438 178.3041 181.8806  1.00259726 16751
METEOSAT-10 (MSG-3)     
1 38552U 12035B   16218.12748257 -.00000029  00000-0  00000+0 0  9999
2 38552   0.5108  13.0867 0001698 195.4042 151.4819  1.00271900 15097
METOP-B                 
1 38771U 12049A   16218.14005633  .00000001  00000-0  20735-4 0  9994
2 38771  98.7258 276.8035 0002234  83.6809 304.8774 14.21477452201376
FENGYUN 3C              
1 39260U 13052A   16218.51006885 -.00000007  00000-0  17283-4 0  9995
2 39260  98.6880 288.8469 0001105 105.9644 254.1657 14.19621804148595
METEOR-M 2              
1 40069U 14037A   16218.49257227 -.00000050  00000-0 -28278-5 0  9999
2 40069  98.7024 272.9761 0006564  50.7904 309.3858 14.20632477107731
HIMAWARI 8              
1 40267U 14060A   16217.73807148 -.00000302  00000-0  00000+0 0  9990
2 40267   0.0145 109.9101 0001130  63.2004 186.8911  1.00267951  6733
FENGYUN 2G              
1 40367U 14090A   16218.03991749 -.00000351  00000-0  00000+0 0  9993
2 40367   1.0886 270.7323 0004173 316.1034 205.8664  1.00261083  5919
METEOSAT-11 (MSG-4)     
1 40732U 15034A   16217.84561764 -.00000050  00000-0  00000+0 0  9992
2 40732   2.4174 255.0200 0000520  29.4788 330.4563  1.00277795  3910
ELEKTRO-L 2             
1 41105U 15074A   16217.81099134 -.00000138  00000-0  00000+0 0  9992
2 41105   0.0146 331.6593 0002074 159.5863 192.2532  1.00270196  2387
